{
    "links": {
        "self": "http://www.neowsapp.com/rest/v1/neo/3892701?api_key=iIulBulltgU6a56xZRHN4H3l9WmuAYTsLGpBGhQ2"
    },
    "id": "3892701",
    "neo_reference_id": "3892701",
    "name": "(2019 VS3)",
    "designation": "2019 VS3",
    "nasa_jpl_url": "http://ssd.jpl.nasa.gov/sbdb.cgi?sstr=3892701",
    "absolute_magnitude_h": 28.4,
    "estimated_diameter": {
        "kilometers": {
            "estimated_diameter_min": 0.0055533491,
            "estimated_diameter_max": 0.0124176661
        },
        "meters": {
            "estimated_diameter_min": 5.5533491158,
            "estimated_diameter_max": 12.4176661257
        },
        "miles": {
            "estimated_diameter_min": 0.0034506901,
            "estimated_diameter_max": 0.0077159776
        },
        "feet": {
            "estimated_diameter_min": 18.2196499131,
            "estimated_diameter_max": 40.740375732
        }
    },
    "is_potentially_hazardous_asteroid": false,
    "close_approach_data": [
        {
            "close_approach_date": "2019-11-03",
            "close_approach_date_full": "2019-Nov-03 15:41",
            "epoch_date_close_approach": 1572795660000,
            "relative_velocity": {
                "kilometers_per_second": "7.0462916973",
                "kilometers_per_hour": "25366.6501104569",
                "miles_per_hour": "15761.8498978003"
            },
            "miss_distance": {
                "astronomical": "0.0126679014",
                "lunar": "4.9278136446",
                "kilometers": "1895091.066810018",
                "miles": "1177554.9849655284"
            },
            "orbiting_body": "Earth"
        }
    ],
    "orbital_data": {
        "orbit_id": "2",
        "orbit_determination_date": "2019-11-22 04:56:17",
        "first_observation_date": "2019-11-05",
        "last_observation_date": "2019-11-07",
        "data_arc_in_days": 2,
        "observations_used": 20,
        "orbit_uncertainty": "7",
        "minimum_orbit_intersection": ".0113026",
        "jupiter_tisserand_invariant": "3.467",
        "epoch_osculation": "2459000.5",
        "eccentricity": ".5414498491036697",
        "semi_major_axis": "2.188982160014289",
        "inclination": "1.093711089243236",
        "ascending_node_longitude": "42.04694253144618",
        "orbital_period": "1182.937392651253",
        "perihelion_distance": "1.003758099783927",
        "perihelion_argument": "354.8923196741939",
        "aphelion_distance": "3.37420622024465",
        "perihelion_time": "2458788.214228162681",
        "mean_anomaly": "64.60433014984186",
        "mean_motion": ".3043271793050278",
        "equinox": "J2000",
        "orbit_class": {
            "orbit_class_type": "APO",
            "orbit_class_description": "Near-Earth asteroid orbits which cross the Earth’s orbit similar to that of 1862 Apollo",
            "orbit_class_range": "a (semi-major axis) > 1.0 AU; q (perihelion) < 1.017 AU"
        }
    },
    "is_sentry_object": false
}